0 METEOR 2-7 DEB
1 36875U 81043N   13281.02038755  .00001627  00000-0  58851-3 0  2900
2 36875 081.2578 173.5581 0021691 005.9709 354.1729 14.33013990504857
0 METEOR 2-7 DEB
1 36875U 81043N   13284.02274393  .00002058  00000-0  74536-3 0  2911
2 36875 081.2578 170.5290 0021505 357.2861 002.8202 14.33031829505289
0 METEOR 2-7 DEB
1 36875U 81043N   13286.39667843  .00001937  00000-0  70098-3 0  2924
2 36875 081.2597 168.1346 0021868 351.5646 008.5166 14.33041550505627
0 METEOR 2-7 DEB
1 36875U 81043N   13289.39897096  .00003060  00000-0  11097-2 0  2935
2 36875 081.2585 165.1060 0021460 341.2244 018.8146 14.33060361506053
0 METEOR 2-7 DEB
1 36875U 81043N   13291.98230766  .00003023  00000-0  10960-2 0  2946
2 36875 081.2557 162.4984 0020860 332.7067 027.3018 14.33074953506424
